USA 153                 
1 26575U 00065A   26087.71065884 -.00000336  00000+0  00000+0 0  9999
2 26575  11.4883  36.0761 0003177  15.3101 164.9942  1.00276116 32121
